NORAD_CAT_ID,OBJECT_NAME,OBJECT_TYPE,EPOCH,MEAN_MOTION,ECCENTRICITY,INCLINATION,RA_OF_ASC_NODE,ARG_OF_PERICENTER,MEAN_ANOMALY,BSTAR,MEAN_MOTION_DOT,MEAN_MOTION_DDOT,TLE_LINE0,TLE_LINE1,TLE_LINE2,SEMIMAJOR_AXIS,PERIOD,APOGEE,PERIGEE,DECAYED
53008.0,STARLINK-4275,PAYLOAD,2022-08-28 22:00:00,15.50039265,0.0001523,53.218,122.2083,78.5757,107.2274,-0.0073271999999999,-0.00398053,0.0,0 STARLINK-4275,1 53008U 22076Y   22240.91667824 -.00398053  00000-0 -73272-2 0  9999,2 53008  53.2180 122.2083 0001523  78.5757 107.2274 15.50039265  1308,6794.748000000001,92.901,417.648,415.578,0.0
53008.0,STARLINK-4275,PAYLOAD,2022-08-29 04:00:00,15.49828875,0.0001325,53.2177,121.0176,77.0992,64.4461,-0.0096987,-0.00515146,0.0,0 STARLINK-4275,1 53008U 22076Y   22241.16667824 -.00515146  00000-0 -96987-2 0  9999,2 53008  53.2177 121.0176 0001325  77.0992  64.4461 15.49828875  8758,6795.363,92.913,418.129,416.328,0.0
53008.0,STARLINK-4275,PAYLOAD,2022-08-29 12:00:00,15.49558337,0.0001281,53.2175,119.4268,73.8314,128.336,-0.020745,-0.01056938,0.0,0 STARLINK-4275,1 53008U 22076Y   22241.50001157 -.01056938  00000-0 -20745-1 0  9996,2 53008  53.2175 119.4268 0001281  73.8314 128.3360 15.49558337  8810,6796.154,92.93,418.89,417.149,0.0
53008.0,STARLINK-4275,PAYLOAD,2022-08-29 14:00:01,15.49367135,0.0001137999999999,53.2174,119.0292,76.3951,230.8728,-0.020866,-0.01055963,0.0,0 STARLINK-4275,1 53008U 22076Y   22241.58334491 -.01055963  00000-0 -20866-1 0  9995,2 53008  53.2174 119.0292 0001138  76.3951 230.8728 15.49367135  1306,6796.7130000000025,92.941,419.352,417.805,0.0
53008.0,STARLINK-4275,PAYLOAD,2022-08-29 22:00:00,15.48610302,0.0001167999999999,53.2175,117.4431,65.6481,301.445,-0.0215099999999999,-0.0105944,0.0,0 STARLINK-4275,1 53008U 22076Y   22241.91667824 -.01059440  00000-0 -21510-1 0  9992,2 53008  53.2175 117.4431 0001168  65.6481 301.4450 15.48610302  1309,6798.928000000001,92.987,421.587,419.99800000000016,0.0
53008.0,STARLINK-4275,PAYLOAD,2022-08-30 04:00:00,15.48039663,0.0001085999999999,53.2174,116.2533,80.2706,241.0943,-0.0218849999999999,-0.01056709,0.0,0 STARLINK-4275,1 53008U 22076Y   22242.16667824 -.01056709  00000-0 -21885-1 0  9990,2 53008  53.2174 116.2533 0001086  80.2706 241.0943 15.48039663  8915,6800.598000000001,93.021,423.202,421.725,0.0
53008.0,STARLINK-4275,PAYLOAD,2022-08-30 14:00:01,15.47119745,0.0001452,53.2176,114.2687,57.3527,66.6425,-0.023462,-0.01093227,0.0,0 STARLINK-4275,1 53008U 22076Y   22242.58334491 -.01093227  00000-0 -23462-1 0  9996,2 53008  53.2176 114.2687 0001452  57.3527  66.6425 15.47119745  1309,6803.294,93.076,426.147,424.171,0.0
53008.0,STARLINK-4275,PAYLOAD,2022-08-30 22:00:00,15.46388442,0.00013,53.2179,112.6882,77.9658,103.1045,-0.024987,-0.01147697,0.0,0 STARLINK-4275,1 53008U 22076Y   22242.91667824 -.01147697  00000-0 -24987-1 0  9996,2 53008  53.2179 112.6882 0001300  77.9658 103.1045 15.46388442  9030,6805.438,93.12,428.18800000000016,426.419,0.0
53008.0,STARLINK-4275,PAYLOAD,2022-08-31 12:00:00,15.45000833,0.0001305,53.2173,109.9228,75.0708,113.741,-0.024302,-0.01055888,0.0,0 STARLINK-4275,1 53008U 22076Y   22243.50001157 -.01055888  00000-0 -24302-1 0  9994,2 53008  53.2173 109.9228 0001305  75.0708 113.7410 15.45000833  9124,6809.513000000001,93.204,432.266,430.489,0.0
53008.0,STARLINK-4275,PAYLOAD,2022-08-31 14:00:01,15.44810175,0.0001189,53.2175,109.528,81.6376,210.905,-0.024432,-0.0105469,0.0,0 STARLINK-4275,1 53008U 22076Y   22243.58334491 -.01054690  00000-0 -24432-1 0  9996,2 53008  53.2175 109.5280 0001189  81.6376 210.9050 15.44810175  1303,6810.073,93.215,432.74800000000016,431.128,0.0
53008.0,STARLINK-4275,PAYLOAD,2022-08-31 22:00:00,15.44132595,0.0001192,53.2176,107.9515,78.7607,268.0834,-0.027523,-0.01167752,0.0,0 STARLINK-4275,1 53008U 22076Y   22243.91667824 -.01167752  00000-0 -27523-1 0  9990,2 53008  53.2176 107.9515 0001192  78.7607 268.0834 15.44132595  1302,6812.065,93.256,434.742,433.11800000000005,0.0
53008.0,STARLINK-4275,PAYLOAD,2022-09-01 04:00:01,15.43483378,0.0001155999999999,53.2171,106.7709,82.01299999999998,215.1082,-0.025646,-0.01057678,0.0,0 STARLINK-4275,1 53008U 22076Y   22244.16668981 -.01057678  00000-0 -25646-1 0  9992,2 53008  53.2171 106.7709 0001156  82.0130 215.1082 15.43483378  9222,6813.975,93.295,436.628,435.052,0.0
53008.0,STARLINK-4275,PAYLOAD,2022-09-01 14:00:01,15.4256237,0.0001216,53.2173,104.7999,70.4922,22.4123,-0.0273,-0.01103803,0.0,0 STARLINK-4275,1 53008U 22076Y   22244.58335648 -.01103803  00000-0 -27300-1 0  9990,2 53008  53.2173 104.7999 0001216  70.4922  22.4123 15.42562370  1305,6816.687,93.351,439.381,437.723,0.0
53008.0,STARLINK-4275,PAYLOAD,2022-09-01 20:00:01,15.41963449,0.0001195,53.2174,103.6246,65.8447,335.8729,-0.026958,-0.01071012,0.0,0 STARLINK-4275,1 53008U 22076Y   22244.83335648 -.01071012  00000-0 -26958-1 0  9992,2 53008  53.2174 103.6246 0001195  65.8447 335.8729 15.41963449  9329,6818.4519999999975,93.387,441.132,439.502,0.0
53008.0,STARLINK-4275,PAYLOAD,2022-09-01 22:00:00,15.41773784,0.000139,53.2173,103.2322,66.559,77.9117,-0.027135,-0.01071221,0.0,0 STARLINK-4275,1 53008U 22076Y   22244.91667824 -.01071221  00000-0 -27135-1 0  9995,2 53008  53.2173 103.2322 0001390  66.5590  77.9117 15.41773784  1309,6819.011,93.399,441.824,439.92800000000005,0.0
53008.0,STARLINK-4275,PAYLOAD,2022-09-02 12:00:02,15.40444458,0.0001317,53.2172,100.484,69.4211,73.2429,-0.02838,-0.01071593,0.0,0 STARLINK-4275,1 53008U 22076Y   22245.50002315 -.01071593  00000-0 -28380-1 0  9994,2 53008  53.2172 100.4840 0001317  69.4211  73.2429 15.40444458  9421,6822.934,93.48,445.697,443.9,0.0
53008.0,STARLINK-4275,PAYLOAD,2022-09-02 14:00:01,15.40290852,0.0001286999999999,53.2173,100.0903,78.3914,166.5492,-0.029769,-0.01114418,0.0,0 STARLINK-4275,1 53008U 22076Y   22245.58334491 -.01114418  00000-0 -29769-1 0  9991,2 53008  53.2173 100.0903 0001287  78.3914 166.5492 15.40290852  1305,6823.387,93.489,446.13,444.374,0.0
53008.0,STARLINK-4275,PAYLOAD,2022-09-02 22:00:01,15.3952184,0.0001245,53.2178,98.5263,90.1916,203.6949,-0.030292,-0.01106154,0.0,0 STARLINK-4275,1 53008U 22076Y   22245.91668981 -.01106154  00000-0 -30292-1 0  9993,2 53008  53.2178  98.5263 0001245  90.1916 203.6949 15.39521840  1300,6825.659000000002,93.536,448.374,446.674,0.0
53008.0,STARLINK-4275,PAYLOAD,2022-09-03 04:00:00,15.38926634,0.0001262999999999,53.2172,97.354,90.2099,149.6831,-0.029879,-0.01072751,0.0,0 STARLINK-4275,1 53008U 22076Y   22246.16667824 -.01072751  00000-0 -29879-1 0  9990,2 53008  53.2172  97.3540 0001263  90.2099 149.6831 15.38926634  9533,6827.419,93.572,450.146,448.422,0.0
53008.0,STARLINK-4275,PAYLOAD,2022-09-03 14:00:01,15.38030596,0.0001082999999999,53.2176,95.3967,68.9725,319.8435,-0.032652,-0.01132682,0.0,0 STARLINK-4275,1 53008U 22076Y   22246.58334491 -.01132682  00000-0 -32652-1 0  9990,2 53008  53.2176  95.3967 0001083  68.9725 319.8435 15.38030596  1307,6830.071,93.626,452.675,451.196,0.0
53008.0,STARLINK-4275,PAYLOAD,2022-09-03 22:00:00,15.37217693,0.0001336,53.2176,93.8399,60.7114,14.2739,-0.031577,-0.01072039,0.0,0 STARLINK-4275,1 53008U 22076Y   22246.91667824 -.01072039  00000-0 -31577-1 0  9990,2 53008  53.2176  93.8399 0001336  60.7114  14.2739 15.37217693  1309,6832.478,93.676,455.256,453.43,0.0
53008.0,STARLINK-4275,PAYLOAD,2022-09-04 06:00:00,15.36456669,0.000127,53.2174,92.2795,73.9582,46.2535,-0.032281,-0.01069377,0.0,0 STARLINK-4275,1 53008U 22076Y   22247.25001157 -.01069377  00000-0 -32281-1 0  9993,2 53008  53.2174  92.2795 0001270  73.9582  46.2535 15.36456669  9698,6834.734,93.722,457.467,455.731,0.0
53008.0,STARLINK-4275,PAYLOAD,2022-09-04 14:00:01,15.35750837,0.0001465,53.2179,90.7194,71.352,93.2054,-0.0352009999999999,-0.01133808,0.0,0 STARLINK-4275,1 53008U 22076Y   22247.58335648 -.01133808  00000-0 -35201-1 0  9990,2 53008  53.2179  90.7194 0001465  71.3520  93.2054 15.35750837  1300,6836.828,93.765,459.695,457.692,0.0
53008.0,STARLINK-4275,PAYLOAD,2022-09-04 20:00:01,15.35127379,0.0001415,53.2175,89.5563,59.6221,47.5364,-0.033683,-0.0106901,0.0,0 STARLINK-4275,1 53008U 22076Y   22247.83334491 -.01069010  00000-0 -33683-1 0  9998,2 53008  53.2175  89.5563 0001415  59.6221  47.5364 15.35127379  1309,6838.679,93.803,461.512,459.576,0.0
53008.0,STARLINK-4275,PAYLOAD,2022-09-05 04:00:00,15.3436737,0.0001345,53.2174,88.0016,70.0279,79.8462,-0.034474,-0.01067855,0.0,0 STARLINK-4275,1 53008U 22076Y   22248.16667824 -.01067855  00000-0 -34474-1 0  9998,2 53008  53.2174  88.0016 0001345  70.0279  79.8462 15.34367370  9836,6840.937,93.85,463.722,461.882,0.0
53008.0,STARLINK-4275,PAYLOAD,2022-09-05 14:00:01,15.33417683,0.000127,53.2177,86.0604,73.584,218.4006,-0.0354779999999999,-0.01066288,0.0,0 STARLINK-4275,1 53008U 22076Y   22248.58334491 -.01066288  00000-0 -35478-1 0  9999,2 53008  53.2177  86.0604 0001270  73.5840 218.4006 15.33417683  1300,6843.761,93.908,466.496,464.757,0.0
53008.0,STARLINK-4275,PAYLOAD,2022-09-05 20:00:01,15.32847003,0.0001402,53.2176,84.8993,73.036,159.5302,-0.036101,-0.01065625,0.0,0 STARLINK-4275,1 53008U 22076Y   22248.83334491 -.01065625  00000-0 -36101-1 0  9995,2 53008  53.2176  84.8993 0001402  73.0360 159.5302 15.32847003  9949,6845.46,93.943,468.285,466.365,0.0
53008.0,STARLINK-4275,PAYLOAD,2022-09-05 22:00:00,15.32692406,0.0001217,53.2181,84.5108,76.6327,255.9948,-0.03797,-0.01111086,0.0,0 STARLINK-4275,1 53008U 22076Y   22248.91667824 -.01111086  00000-0 -37970-1 0  9991,2 53008  53.2181  84.5108 0001217  76.6327 255.9948 15.32692406  1300,6845.92,93.952,468.61800000000005,466.952,0.0
53008.0,STARLINK-4275,PAYLOAD,2022-09-06 12:00:00,15.31327233,0.000122,53.2176,81.8017,75.7553,235.8536,-0.037814,-0.01064063,0.0,0 STARLINK-4275,1 53008U 22076Y   22249.50001157 -.01064063  00000-0 -37814-1 0  9997,2 53008  53.2176  81.8017 0001220  75.7553 235.8536 15.31327233 10041,6849.988,94.036,472.689,471.018,0.0
